NORAD_CAT_ID,OBJECT_NAME,OBJECT_TYPE,EPOCH,MEAN_MOTION,ECCENTRICITY,INCLINATION,RA_OF_ASC_NODE,ARG_OF_PERICENTER,MEAN_ANOMALY,BSTAR,MEAN_MOTION_DOT,MEAN_MOTION_DDOT,TLE_LINE0,TLE_LINE1,TLE_LINE2,SEMIMAJOR_AXIS,PERIOD,APOGEE,PERIGEE,DECAYED
53616.0,STARLINK-4605,PAYLOAD,2022-09-30 22:00:00,15.732525,0.0001109,53.216,120.0669,76.6824,317.0552,0.00017317,0.00023806,0.0,0 STARLINK-4605,1 53616U 22104AE  22273.91667824  .00023806  00000-0  17317-3 0  9990,2 53616  53.2160 120.0669 0001109  76.6824 317.0552 15.73252500  1305,6727.745,91.53,350.357,348.86400000000015,0.0
53616.0,STARLINK-4605,PAYLOAD,2022-10-01 06:00:00,15.73272384,0.0001085,53.2159,118.416,80.6402,42.0994,-0.0002657,-0.00037856,0.0,0 STARLINK-4605,1 53616U 22104AE  22274.25001157 -.00037856  00000-0 -26570-3 0  9992,2 53616  53.2159 118.4160 0001085  80.6402  42.0994 15.73272384  5413,6727.689,91.529,350.284,348.824,0.0
53616.0,STARLINK-4605,PAYLOAD,2022-10-01 14:00:01,15.73251912,0.0001054,53.2161,116.7658,91.4421,120.2933,-0.00028819,-0.00040957,0.0,0 STARLINK-4605,1 53616U 22104AE  22274.58334491 -.00040957  00000-0 -28819-3 0  9992,2 53616  53.2161 116.7658 0001054  91.4421 120.2933 15.73251912  1306,6727.746999999999,91.53,350.321,348.903,0.0
53616.0,STARLINK-4605,PAYLOAD,2022-10-01 22:00:00,15.7321269,0.0001053,53.2159,115.1183,74.0956,226.6234,-0.00058105,-0.00081423,0.0,0 STARLINK-4605,1 53616U 22104AE  22274.91667824 -.00081423  00000-0 -58105-3 0  9992,2 53616  53.2159 115.1183 0001053  74.0956 226.6234 15.73212690  1303,6727.859,91.532,350.432,349.016,0.0
53616.0,STARLINK-4605,PAYLOAD,2022-10-02 06:00:00,15.73153223,9.27e-05,53.2159,113.4675,78.8429,310.7928,-0.00028266,-0.00040019,0.0,0 STARLINK-4605,1 53616U 22104AE  22275.25001157 -.00040019  00000-0 -28266-3 0  9992,2 53616  53.2159 113.4675 0000927  78.8429 310.7928 15.73153223  5570,6728.029,91.536,350.517,349.27,0.0
53616.0,STARLINK-4605,PAYLOAD,2022-10-02 14:00:01,15.73142618,0.0001047,53.2164,111.8175,85.6728,32.814,0.00052474,0.00073488,0.0,0 STARLINK-4605,1 53616U 22104AE  22275.58334491  .00073488  00000-0  52474-3 0  9990,2 53616  53.2164 111.8175 0001047  85.6728  32.8140 15.73142618  5625,6728.059,91.537,350.62800000000016,349.219,0.0
53616.0,STARLINK-4605,PAYLOAD,2022-10-02 22:00:00,15.73176436,0.0001104,53.2165,110.1702,66.6287,140.7573,0.00072332,0.0010203,0.0,0 STARLINK-4605,1 53616U 22104AE  22275.91667824  .00102030  00000-0  72332-3 0  9997,2 53616  53.2165 110.1702 0001104  66.6287 140.7573 15.73176436  1302,6727.962,91.535,350.57,349.085,0.0
53616.0,STARLINK-4605,PAYLOAD,2022-10-03 14:00:01,15.73243517,0.0001036,53.2163,106.8694,77.6336,307.7022,9.0128e-05,0.0001207,0.0,0 STARLINK-4605,1 53616U 22104AE  22276.58334491  .00012070  00000-0  90128-4 0  9990,2 53616  53.2163 106.8694 0001036  77.6336 307.7022 15.73243517  1302,6727.771,91.531,350.333,348.939,0.0
53616.0,STARLINK-4605,PAYLOAD,2022-10-03 22:00:00,15.7323962,0.0001081,53.216,105.2218,60.8,53.519,-0.00020913,-0.00029915,0.0,0 STARLINK-4605,1 53616U 22104AE  22276.91667824 -.00029915  00000-0 -20913-3 0  9998,2 53616  53.2160 105.2218 0001081  60.8000  53.5190 15.73239620  1308,6727.781999999997,91.531,350.374,348.92,0.0
53616.0,STARLINK-4605,PAYLOAD,2022-10-04 06:00:00,15.7322397,0.0001041,53.216,103.5706,67.2302,136.0509,-0.00038065,-0.00053754,0.0,0 STARLINK-4605,1 53616U 22104AE  22277.25001157 -.00053754  00000-0 -38065-3 0  9992,2 53616  53.2160 103.5706 0001041  67.2302 136.0509 15.73223970  5882,6727.8269999999975,91.532,350.392,348.991,0.0
53616.0,STARLINK-4605,PAYLOAD,2022-10-04 14:00:01,15.73183833,0.0001242999999999,53.2163,101.9208,73.7387,218.4785,-0.00020642,-0.00029468,0.0,0 STARLINK-4605,1 53616U 22104AE  22277.58334491 -.00029468  00000-0 -20642-3 0  9995,2 53616  53.2163 101.9208 0001243  73.7387 218.4785 15.73183833  1300,6727.941,91.534,350.64300000000014,348.97,0.0
53616.0,STARLINK-4605,PAYLOAD,2022-10-04 22:00:00,15.73154934,0.0001327,53.2162,100.2732,61.0646,320.0735,0.00025006,0.00034551,0.0,0 STARLINK-4605,1 53616U 22104AE  22277.91667824  .00034551  00000-0  25006-3 0  9997,2 53616  53.2162 100.2732 0001327  61.0646 320.0735 15.73154934  5998,6728.024,91.536,350.781,348.996,0.0
53616.0,STARLINK-4605,PAYLOAD,2022-10-05 14:00:01,15.73215329,0.0001213,53.2159,96.9727,66.8425,132.1263,-0.00023213,-0.00033091,0.0,0 STARLINK-4605,1 53616U 22104AE  22278.58335648 -.00033091  00000-0 -23213-3 0  9995,2 53616  53.2159  96.9727 0001213  66.8425 132.1263 15.73215329  6097,6727.851,91.532,350.533,348.9,0.0
53616.0,STARLINK-4605,PAYLOAD,2022-10-05 22:00:00,15.73153465,0.0001267,53.2154,95.3251,48.7489,239.0992,0.00063057,0.00088637,0.0,0 STARLINK-4605,1 53616U 22104AE  22278.91667824  .00088637  00000-0  63057-3 0  9990,2 53616  53.2154  95.3251 0001267  48.7489 239.0992 15.73153465  1302,6728.028,91.536,350.745,349.04,0.0
53616.0,STARLINK-4605,PAYLOAD,2022-10-06 06:00:00,15.73201312,0.0001095999999999,53.2154,93.6735,54.9984,321.7678,-6.2278e-05,-9.35e-05,0.0,0 STARLINK-4605,1 53616U 22104AE  22279.25001157 -.00009350  00000-0 -62278-4 0  9991,2 53616  53.2154  93.6735 0001096  54.9984 321.7678 15.73201312  6208,6727.891,91.533,350.494,349.019,0.0
53616.0,STARLINK-4605,PAYLOAD,2022-10-06 14:00:01,15.73209982,0.0001171,53.2155,92.024,54.5492,51.1407,-7.8702e-06,-1.725e-05,0.0,0 STARLINK-4605,1 53616U 22104AE  22279.58334491 -.00001725  00000-0 -78702-5 0  9995,2 53616  53.2155  92.0240 0001171  54.5492  51.1407 15.73209982  1308,6727.8669999999975,91.533,350.52,348.944,0.0
53616.0,STARLINK-4605,PAYLOAD,2022-10-06 22:42:55,15.73166127,0.0001457,53.2153,90.2286,43.5885,319.8796,0.00084928,0.00120114,0.0,0 STARLINK-4605,1 53616U 22104AE  22279.94646991  .00120114  00000-0  84928-3 0  9993,2 53616  53.2153  90.2286 0001457  43.5885 319.8796 15.73166127  1305,6727.9919999999975,91.535,350.837,348.876,0.0
53616.0,STARLINK-4605,PAYLOAD,2022-10-07 00:00:00,15.73199452,0.0001422,53.2153,89.9634,42.7765,264.0908,0.00047556,0.00066652,0.0,0 STARLINK-4605,1 53616U 22104AE  22280.00001157  .00066652  00000-0  47556-3 0  9993,2 53616  53.2153  89.9634 0001422  42.7765 264.0908 15.73199452  6316,6727.897,91.533,350.718,348.805,0.0
53616.0,STARLINK-4605,PAYLOAD,2022-10-07 14:00:01,15.73234058,0.0001394,53.2153,87.0752,49.7506,322.7990000000001,-0.00032225,-0.00045667,0.0,0 STARLINK-4605,1 53616U 22104AE  22280.58334491 -.00045667  00000-0 -32225-3 0  9998,2 53616  53.2153  87.0752 0001394  49.7506 322.7990 15.73234058  1303,6727.7980000000025,91.531,350.601,348.725,0.0
53616.0,STARLINK-4605,PAYLOAD,2022-10-07 22:00:00,15.73168419,0.0001539,53.2147,85.4271,40.3229,61.1815,0.00014648,0.00019959,0.0,0 STARLINK-4605,1 53616U 22104AE  22280.91667824  .00019959  00000-0  14648-3 0  9996,2 53616  53.2147  85.4271 0001539  40.3229  61.1815 15.73168419  1301,6727.985,91.535,350.886,348.815,0.0
53616.0,STARLINK-4605,PAYLOAD,2022-10-08 14:00:01,15.73166079,0.0001641,53.2151,82.1264,49.1396,230.1611,-0.00035931,-0.00050673,0.0,0 STARLINK-4605,1 53616U 22104AE  22281.58334491 -.00050673  00000-0 -35931-3 0  9999,2 53616  53.2151  82.1264 0001641  49.1396 230.1611 15.73166079  1300,6727.9919999999975,91.535,350.961,348.75300000000016,0.0
53616.0,STARLINK-4605,PAYLOAD,2022-10-08 22:00:00,15.73173193,0.0001719,53.215,80.4781,34.2329,334.0332,0.00057219,0.00080363,0.0,0 STARLINK-4605,1 53616U 22104AE  22281.91667824  .00080363  00000-0  57219-3 0  9995,2 53616  53.2150  80.4781 0001719  34.2329 334.0332 15.73173193  6619,6727.972,91.535,350.99300000000005,348.68,0.0
53616.0,STARLINK-4605,PAYLOAD,2022-10-09 06:00:00,15.73134041,0.0001524,53.2152,78.8265,39.5211,57.6974,0.0013446,0.00191916,0.0,0 STARLINK-4605,1 53616U 22104AE  22282.25001157  .00191916  00000-0  13446-2 0  9994,2 53616  53.2152  78.8265 0001524  39.5211  57.6974 15.73134041  6676,6728.083000000001,91.537,350.974,348.923,0.0
53616.0,STARLINK-4605,PAYLOAD,2022-10-09 14:00:01,15.7334538,0.0001672,53.2151,77.1777,39.0044,147.1362,-0.00084127,-0.00117784,0.0,0 STARLINK-4605,1 53616U 22104AE  22282.58334491 -.00117784  00000-0 -84127-3 0  9998,2 53616  53.2151  77.1777 0001672  39.0044 147.1362 15.73345380  1309,6727.481,91.525,350.471,348.221,0.0
53616.0,STARLINK-4605,PAYLOAD,2022-10-09 22:00:00,15.7324041,0.0001828,53.2146,75.5291,29.8354,245.3674,-0.00053435,-0.00075081,0.0,0 STARLINK-4605,1 53616U 22104AE  22282.91667824 -.00075081  00000-0 -53435-3 0  9995,2 53616  53.2146  75.5291 0001828  29.8354 245.3674 15.73240410  6771,6727.78,91.531,350.875,348.415,0.0
53616.0,STARLINK-4605,PAYLOAD,2022-10-10 14:00:01,15.73220048,0.0001716,53.2164,72.2322,34.4567,58.5697,-0.0018024,-0.00246535,0.0,0 STARLINK-4605,1 53616U 22104AE  22283.58334491 -.00246535  00000-0 -18024-2 0  9998,2 53616  53.2164  72.2322 0001716  34.4567  58.5697 15.73220048  1302,6727.8380000000025,91.532,350.858,348.5490000000001,0.0
53616.0,STARLINK-4605,PAYLOAD,2022-10-10 22:00:01,15.73259055,0.0001946,53.2164,70.5846,25.384,156.7027,-0.0029598,-0.00398023,0.0,0 STARLINK-4605,1 53616U 22104AE  22283.91668981 -.00398023  00000-0 -29598-2 0  9997,2 53616  53.2164  70.5846 0001946  25.3840 156.7027 15.73259055  6934,6727.727,91.53,350.901,348.283,0.0
53616.0,STARLINK-4605,PAYLOAD,2022-10-11 06:00:00,15.73079236,0.0001901,53.2159,68.9298,30.4315,240.4767,0.00055342,0.00077367,0.0,0 STARLINK-4605,1 53616U 22104AE  22284.25001157  .00077367  00000-0  55342-3 0  9991,2 53616  53.2159  68.9298 0001901  30.4315 240.4767 15.73079236  6983,6728.239000000001,91.54,351.384,348.825,0.0
53616.0,STARLINK-4605,PAYLOAD,2022-10-11 14:00:01,15.73148002,0.0001959,53.2167,67.2838,31.4529,328.264,0.00041449,0.00057824,0.0,0 STARLINK-4605,1 53616U 22104AE  22284.58334491  .00057824  00000-0  41449-3 0  9996,2 53616  53.2167  67.2838 0001959  31.4529 328.2640 15.73148002  1309,6728.043000000002,91.536,351.226,348.59,0.0
